CCSDS_OMM_VERS = 2.0
CREATION_DATE  = 
ORIGINATOR     = 

OBJECT_NAME    = SL-3 R/B
OBJECT_ID      = 1982-079B
CENTER_NAME    = EARTH
REF_FRAME      = TEME
TIME_SYSTEM    = UTC
MEAN_ELEMENT_THEORY = SGP/SGP4

EPOCH          = 2025-12-21T03:39:55.066752
MEAN_MOTION    = 15.23677639
ECCENTRICITY   = .0027042
INCLINATION    = 81.1480
RA_OF_ASC_NODE = 285.7434
ARG_OF_PERICENTER = 72.0809
MEAN_ANOMALY   = 288.3368

EPHEMERIS_TYPE = 0
CLASSIFICATION_TYPE = U
NORAD_CAT_ID   = 13403
ELEMENT_SET_NO = 999
REV_AT_EPOCH   = 36573
BSTAR          = .19279E-3
MEAN_MOTION_DOT = .4698E-4
MEAN_MOTION_DDOT = 0

CCSDS_OMM_VERS = 2.0
CREATION_DATE  = 
ORIGINATOR     = 

OBJECT_NAME    = SL-14 R/B
OBJECT_ID      = 1982-092B
CENTER_NAME    = EARTH
REF_FRAME      = TEME
TIME_SYSTEM    = UTC
MEAN_ELEMENT_THEORY = SGP/SGP4

EPOCH          = 2025-12-21T00:53:00.357216
MEAN_MOTION    = 14.86562774
ECCENTRICITY   = .0019789
INCLINATION    = 82.5674
RA_OF_ASC_NODE = 214.9523
ARG_OF_PERICENTER = 198.2413
MEAN_ANOMALY   = 274.7283

EPHEMERIS_TYPE = 0
CLASSIFICATION_TYPE = U
NORAD_CAT_ID   = 13553
ELEMENT_SET_NO = 999
REV_AT_EPOCH   = 31724
BSTAR          = .36267E-4
MEAN_MOTION_DOT = .347E-5
MEAN_MOTION_DDOT = 0

CCSDS_OMM_VERS = 2.0
CREATION_DATE  = 
ORIGINATOR     = 

OBJECT_NAME    = SL-3 R/B
OBJECT_ID      = 1983-010B
CENTER_NAME    = EARTH
REF_FRAME      = TEME
TIME_SYSTEM    = UTC
MEAN_ELEMENT_THEORY = SGP/SGP4

EPOCH          = 2025-12-21T00:07:00.157152
MEAN_MOTION    = 15.43662302
ECCENTRICITY   = .0016729
INCLINATION    = 81.1051
RA_OF_ASC_NODE = 98.5294
ARG_OF_PERICENTER = 321.8167
MEAN_ANOMALY   = 38.1889

EPHEMERIS_TYPE = 0
CLASSIFICATION_TYPE = U
NORAD_CAT_ID   = 13819
ELEMENT_SET_NO = 999
REV_AT_EPOCH   = 34579
BSTAR          = .21311E-3
MEAN_MOTION_DOT = .9681E-4
MEAN_MOTION_DDOT = 0

CCSDS_OMM_VERS = 2.0
CREATION_DATE  = 
ORIGINATOR     = 

OBJECT_NAME    = SL-3 R/B
OBJECT_ID      = 1983-075B
CENTER_NAME    = EARTH
REF_FRAME      = TEME
TIME_SYSTEM    = UTC
MEAN_ELEMENT_THEORY = SGP/SGP4

EPOCH          = 2025-12-21T02:59:44.932704
MEAN_MOTION    = 15.36289421
ECCENTRICITY   = .0023632
INCLINATION    = 97.6100
RA_OF_ASC_NODE = 351.8905
ARG_OF_PERICENTER = 146.2388
MEAN_ANOMALY   = 214.0366

EPHEMERIS_TYPE = 0
CLASSIFICATION_TYPE = U
NORAD_CAT_ID   = 14208
ELEMENT_SET_NO = 999
REV_AT_EPOCH   = 31808
BSTAR          = .20392E-3
MEAN_MOTION_DOT = .7193E-4
MEAN_MOTION_DDOT = 0

CCSDS_OMM_VERS = 2.0
CREATION_DATE  = 
ORIGINATOR     = 

OBJECT_NAME    = COSMOS 1536
OBJECT_ID      = 1984-013A
CENTER_NAME    = EARTH
REF_FRAME      = TEME
TIME_SYSTEM    = UTC
MEAN_ELEMENT_THEORY = SGP/SGP4

EPOCH          = 2025-12-21T00:30:51.920064
MEAN_MOTION    = 15.22605858
ECCENTRICITY   = .0014153
INCLINATION    = 82.5437
RA_OF_ASC_NODE = 185.9502
ARG_OF_PERICENTER = 194.5127
MEAN_ANOMALY   = 165.5705

EPHEMERIS_TYPE = 0
CLASSIFICATION_TYPE = U
NORAD_CAT_ID   = 14699
ELEMENT_SET_NO = 999
REV_AT_EPOCH   = 26064
BSTAR          = .20967E-3
MEAN_MOTION_DOT = .4917E-4
MEAN_MOTION_DDOT = 0

CCSDS_OMM_VERS = 2.0
CREATION_DATE  = 
ORIGINATOR     = 

OBJECT_NAME    = SL-14 R/B
OBJECT_ID      = 1984-027B
CENTER_NAME    = EARTH
REF_FRAME      = TEME
TIME_SYSTEM    = UTC
MEAN_ELEMENT_THEORY = SGP/SGP4

EPOCH          = 2025-12-20T21:44:32.125632
MEAN_MOTION    = 14.85882281
ECCENTRICITY   = .0016645
INCLINATION    = 82.5418
RA_OF_ASC_NODE = 318.8976
ARG_OF_PERICENTER = 231.3142
MEAN_ANOMALY   = 128.6586

EPHEMERIS_TYPE = 0
CLASSIFICATION_TYPE = U
NORAD_CAT_ID   = 14820
ELEMENT_SET_NO = 999
REV_AT_EPOCH   = 23593
BSTAR          = .40649E-4
MEAN_MOTION_DOT = .379E-5
MEAN_MOTION_DDOT = 0

CCSDS_OMM_VERS = 2.0
CREATION_DATE  = 
ORIGINATOR     = 

OBJECT_NAME    = SL-8 R/B
OBJECT_ID      = 1985-006B
CENTER_NAME    = EARTH
REF_FRAME      = TEME
TIME_SYSTEM    = UTC
MEAN_ELEMENT_THEORY = SGP/SGP4

EPOCH          = 2025-12-21T04:05:26.928384
MEAN_MOTION    = 14.37725706
ECCENTRICITY   = .001905
INCLINATION    = 74.0461
RA_OF_ASC_NODE = 45.6239
ARG_OF_PERICENTER = 336.0473
MEAN_ANOMALY   = 83.1268

EPHEMERIS_TYPE = 0
CLASSIFICATION_TYPE = U
NORAD_CAT_ID   = 15483
ELEMENT_SET_NO = 999
REV_AT_EPOCH   = 14274
BSTAR          = .73054E-4
MEAN_MOTION_DOT = .194E-5
MEAN_MOTION_DDOT = 0

CCSDS_OMM_VERS = 2.0
CREATION_DATE  = 
ORIGINATOR     = 

OBJECT_NAME    = SL-12 R/B(2)
OBJECT_ID      = 1985-042D
CENTER_NAME    = EARTH
REF_FRAME      = TEME
TIME_SYSTEM    = UTC
MEAN_ELEMENT_THEORY = SGP/SGP4

EPOCH          = 2025-12-21T04:44:28.292352
MEAN_MOTION    = 14.21954342
ECCENTRICITY   = .0037399
INCLINATION    = 71.1075
RA_OF_ASC_NODE = 253.5523
ARG_OF_PERICENTER = 249.0699
MEAN_ANOMALY   = 223.0424

EPHEMERIS_TYPE = 0
CLASSIFICATION_TYPE = U
NORAD_CAT_ID   = 15772
ELEMENT_SET_NO = 999
REV_AT_EPOCH   = 10323
BSTAR          = .67835E-4
MEAN_MOTION_DOT = .103E-5
MEAN_MOTION_DDOT = 0

CCSDS_OMM_VERS = 2.0
CREATION_DATE  = 
ORIGINATOR     = 

OBJECT_NAME    = SL-14 R/B
OBJECT_ID      = 1985-069B
CENTER_NAME    = EARTH
REF_FRAME      = TEME
TIME_SYSTEM    = UTC
MEAN_ELEMENT_THEORY = SGP/SGP4

EPOCH          = 2025-12-21T01:11:03.865920
MEAN_MOTION    = 14.86333230
ECCENTRICITY   = .0020346
INCLINATION    = 82.5273
RA_OF_ASC_NODE = 98.8913
ARG_OF_PERICENTER = 92.9633
MEAN_ANOMALY   = 267.3913

EPHEMERIS_TYPE = 0
CLASSIFICATION_TYPE = U
NORAD_CAT_ID   = 15945
ELEMENT_SET_NO = 999
REV_AT_EPOCH   = 16115
BSTAR          = .43141E-4
MEAN_MOTION_DOT = .406E-5
MEAN_MOTION_DDOT = 0

CCSDS_OMM_VERS = 2.0
CREATION_DATE  = 
ORIGINATOR     = 

OBJECT_NAME    = SL-16 R/B
OBJECT_ID      = 1985-097B
CENTER_NAME    = EARTH
REF_FRAME      = TEME
TIME_SYSTEM    = UTC
MEAN_ELEMENT_THEORY = SGP/SGP4

EPOCH          = 2025-12-21T04:08:41.611776
MEAN_MOTION    = 14.16587826
ECCENTRICITY   = .000725
INCLINATION    = 71.0038
RA_OF_ASC_NODE = 305.8490
ARG_OF_PERICENTER = 357.1699
MEAN_ANOMALY   = 14.0367

EPHEMERIS_TYPE = 0
CLASSIFICATION_TYPE = U
NORAD_CAT_ID   = 16182
ELEMENT_SET_NO = 999
REV_AT_EPOCH   = 7611
BSTAR          = .33765E-5
MEAN_MOTION_DOT = -.41E-6
MEAN_MOTION_DDOT = 0

CCSDS_OMM_VERS = 2.0
CREATION_DATE  = 
ORIGINATOR     = 

OBJECT_NAME    = SL-14 R/B
OBJECT_ID      = 1986-006B
CENTER_NAME    = EARTH
REF_FRAME      = TEME
TIME_SYSTEM    = UTC
MEAN_ELEMENT_THEORY = SGP/SGP4

EPOCH          = 2025-12-21T01:06:08.280288
MEAN_MOTION    = 14.86681252
ECCENTRICITY   = .0076895
INCLINATION    = 82.5267
RA_OF_ASC_NODE = 333.7350
ARG_OF_PERICENTER = 172.1829
MEAN_ANOMALY   = 188.0608

EPHEMERIS_TYPE = 0
CLASSIFICATION_TYPE = U
NORAD_CAT_ID   = 16496
ELEMENT_SET_NO = 999
REV_AT_EPOCH   = 13752
BSTAR          = .41949E-4
MEAN_MOTION_DOT = .421E-5
MEAN_MOTION_DDOT = 0

CCSDS_OMM_VERS = 2.0
CREATION_DATE  = 
ORIGINATOR     = 

OBJECT_NAME    = COSMOS 1743
OBJECT_ID      = 1986-034A
CENTER_NAME    = EARTH
REF_FRAME      = TEME
TIME_SYSTEM    = UTC
MEAN_ELEMENT_THEORY = SGP/SGP4

EPOCH          = 2025-12-20T21:43:36.202368
MEAN_MOTION    = 15.52576411
ECCENTRICITY   = .000489
INCLINATION    = 82.5343
RA_OF_ASC_NODE = 156.1074
ARG_OF_PERICENTER = 218.1990
MEAN_ANOMALY   = 141.8916

EPHEMERIS_TYPE = 0
CLASSIFICATION_TYPE = U
NORAD_CAT_ID   = 16719
ELEMENT_SET_NO = 999
REV_AT_EPOCH   = 16800
BSTAR          = .36344E-3
MEAN_MOTION_DOT = .22388E-3
MEAN_MOTION_DDOT = 0

