SL-3 R/B                
1 13403U 82079B   25355.15272068  .00004698  00000+0  19279-3 0  9995
2 13403  81.1480 285.7434 0027042  72.0809 288.3368 15.23677639365730
SL-14 R/B               
1 13553U 82092B   25355.03680969  .00000347  00000+0  36267-4 0  9990
2 13553  82.5674 214.9523 0019789 198.2413 274.7283 14.86562774317249
SL-3 R/B                
1 13819U 83010B   25355.00486293  .00009681  00000+0  21311-3 0  9990
2 13819  81.1051  98.5294 0016729 321.8167  38.1889 15.43662302345797
SL-3 R/B                
1 14208U 83075B   25355.12482561  .00007193  00000+0  20392-3 0  9995
2 14208  97.6100 351.8905 0023632 146.2388 214.0366 15.36289421318082
COSMOS 1536             
1 14699U 84013A   25355.02143426  .00004917  00000+0  20967-3 0  9994
2 14699  82.5437 185.9502 0014153 194.5127 165.5705 15.22605858260642
SL-14 R/B               
1 14820U 84027B   25354.90592738  .00000379  00000+0  40649-4 0  9993
2 14820  82.5418 318.8976 0016645 231.3142 128.6586 14.85882281235930
SL-8 R/B                
1 15483U 85006B   25355.17045056  .00000194  00000+0  73054-4 0  9994
2 15483  74.0461  45.6239 0019050 336.0473  83.1268 14.37725706142743
SL-12 R/B(2)            
1 15772U 85042D   25355.19754968  .00000103  00000+0  67835-4 0  9996
2 15772  71.1075 253.5523 0037399 249.0699 223.0424 14.21954342103231
SL-14 R/B               
1 15945U 85069B   25355.04935030  .00000406  00000+0  43141-4 0  9992
2 15945  82.5273  98.8913 0020346  92.9633 267.3913 14.86333230161156
SL-16 R/B               
1 16182U 85097B   25355.17270384 -.00000041  00000+0  33765-5 0  9993
2 16182  71.0038 305.8490 0007250 357.1699  14.0367 14.16587826 76116
SL-14 R/B               
1 16496U 86006B   25355.04592917  .00000421  00000+0  41949-4 0  9990
2 16496  82.5267 333.7350 0076895 172.1829 188.0608 14.86681252137529
COSMOS 1743             
1 16719U 86034A   25354.90528012  .00022388  00000+0  36344-3 0  9996
2 16719  82.5343 156.1074 0004890 218.1990 141.8916 15.52576411168008
